0 FENGYUN 3B
1 37214U 10059A   26158.27517931  .00000248  00000-0  15189-3 0  9990
2 37214  98.9619 204.2474 0021420 212.7301 276.8989 14.14840094806029
0 TISAT 1
1 36799U 10035E   26158.12068653  .00022744  00000-0  75310-3 0  9994
2 36799  98.0705 103.7797 0000069  57.6327 302.4919 15.31327055866161
0 NOAA 19
1 33591U 09005A   26157.99839149  .00000044  00000-0  47330-4 0  9997
2 33591  98.9520 228.8657 0014674  61.8209 298.4443 14.13472810893041
0 O/OREOS (USA 219)
1 37224U 10062C   26156.87810413  .00002979  00000-0  28689-3 0  9992
2 37224  71.9702 105.9546 0012371  87.8701 272.3886 14.93695134114952
0 CARTOSAT 2B
1 36795U 10035A   26158.25683584  .00000967  00000-0  13911-3 0  9992
2 36795  97.9952 208.8695 0010375 217.9785 142.0695 14.78650270858385
0 XIWANG-1 (HOPE-1)
1 36122U 09072B   26158.21199705  .00000348  00000-0  10283-2 0  9999
2 36122 100.4029 112.2039 0006771 256.8174 103.2183 13.16440937791692
0 ITUPSAT 1
1 35935U 09051E   26157.68643731  .00000831  00000-0  18172-3 0  9993
2 35935  98.4055  64.2519 0006097 273.4297  86.6205 14.60425026887203
BEESAT
1 35933U 09051C   26157.97853478  .00000904  00000-0  19130-3 0  9990
2 35933  98.3972  65.3456 0003894 257.6051 102.4714 14.61704086887696
SWISSCUBE
1 35932U 09051B   26156.46919883  .00001141  00000-0  23506-3 0  9991
2 35932  98.4043  64.1532 0005431 246.3597 113.7034 14.62458715887445
KKS-1
1 33499U 09002H   26157.79925389  .00001481  00000-0  18860-3 0  9992
2 33499  98.1193  80.0770 0007192 334.4433  25.6423 14.83097275934651
SRMSAT
1 37841U 11058D   26157.27188351  .00000385  00000-0  65061-4 0  9992
2 37841  19.9704 125.5359 0011947  84.3565  18.6414 14.11573396756279
0 JUGNU
1 37839U 11058B   26158.29638047  .00000448  00000-0  94356-4 0  9993
2 37839  19.9622   8.5160 0018510 327.3339 207.6155 14.13774252757625
0 METEOR-M
1 35865U 09049A   26158.16229469  .00000091  00000-0  59801-4 0  9997
2 35865  98.7381 120.7083 0002171   9.1513 350.9705 14.23154630867825
0 STARS (KUKAI)
1 33498U 09002G   26158.11730598  .00004283  00000-0  39038-3 0  9997
2 33498  98.1541 105.0154 0008011 193.5060 166.5946 14.95678271936978
0 PROBA 2
1 36037U 09059B   26157.78657710  .00000207  00000-0  58854-4 0  9997
2 36037  98.2451 341.2838 0012323 317.2726  42.7512 14.54857997880015
0 DMC 2
1 35683U 09041C   26158.32837804  .00000647  00000-0  10112-3 0  9991
2 35683  97.8830 293.5365 0001335  72.6567 287.4788 14.76014082905113
0 AISSAT 1
1 36797U 10035C   26157.65161534  .00002654  00000-0  23401-3 0  9993
2 36797  98.0919  56.5238 0010272  93.0055 267.2341 14.97312297862649
0 YOUTHSAT
1 37388U 11015B   26158.18030669  .00000197  00000-0  10031-3 0  9997
2 37388  98.3677 132.6859 0014867  16.2744 354.4396 14.25626150786215
0 COSMOS 2463
1 36519U 10017A   26158.07382882  .00000067  00000-0  56448-4 0  9997
2 36519  82.9608 257.1357 0036819 156.2054  18.8981 13.71665146806547
0 ELEKTRO-L
1 37344U 11001A   26158.25300486 -.00000053  00000-0  00000-0 0  9993
2 37344   9.6627  54.6055 0004326  29.9053 154.8676  1.00156080 56381
0 APRIZESAT 6
1 37793U 11044F   26156.51628799  .00000814  00000-0  12180-3 0  9994
2 37793  98.2372  66.7773 0044239 122.3000  58.2477 14.76898404795429
0 RESOURCESAT 2
1 37387U 11015A   26157.95390565  .00000085  00000-0  59077-4 0  9994
2 37387  98.7645 225.4660 0010147 288.5617  71.4458 14.21604292784722
0 DMSP 5D-3 F18 (USA 210)
1 35951U 09057A   26158.24082067  .00000280  00000-0  16826-3 0  9991
2 35951  98.9033 139.0318 0009884 281.2296  78.7766 14.14891360858189
0 YAOGAN 10
1 36834U 10038A   26158.32654396  .00002698  00000-0  32017-3 0  9997
2 36834  97.8979 181.8102 0001723  88.1800  42.0405 14.85322460855743
0 OCEANSAT 2
1 35931U 09051A   26158.26302521  .00000143  00000-0  12372-3 0  9995
2 35931  98.2323 146.1045 0014597 266.4813  93.4684 13.99663733877946
0 YAOGAN 7
1 36110U 09069A   26157.66303290  .00000535  00000-0  81101-4 0  9993
2 36110  98.0084  43.5945 0025979  74.1214 286.2857 14.77999154888078
0 SKYMED 4
1 37216U 10060A   26158.24964189  .00000070  00000-0  15363-4 0  9990
2 37216  97.8888 341.9934 0001425  83.5590 276.5785 14.82159734843092
0 CHUANG XIN 1-02(CX-1-02
1 33434U 08056B   26158.29286934 -.00000020  00000-0  90951-5 0  9993
2 33434  98.6136 184.6583 0014369 164.5149 195.6475 14.30150796917202
0 SHIJIAN 6 04B (SJ-6 04B
1 37180U 10051B   26158.27907135  .00001035  00000-0  89813-4 0  9994
2 37180  97.8685 163.5889 0009377 345.2519  14.8428 14.99292194854193
0 RADUGA 1M-2
1 36358U 10002A   26158.20214329 -.00000175  00000-0  00000-0 0  9997
2 36358   3.5942  78.9821 0005884 268.0156 336.9944  0.98969753 49926
