OBJECT_NAME,OBJECT_ID,EPOCH,MEAN_MOTION,ECCENTRICITY,INCLINATION,RA_OF_ASC_NODE,ARG_OF_PERICENTER,MEAN_ANOMALY,EPHEMERIS_TYPE,CLASSIFICATION_TYPE,NORAD_CAT_ID,ELEMENT_SET_NO,REV_AT_EPOCH,BSTAR,MEAN_MOTION_DOT,MEAN_MOTION_DDOT
CHUANGXIN 1-02 (CX-1-02),2008-056B,2026-06-07T07:01:43.910976,14.30150796,.00143694,98.6136,184.6583,164.5149,195.6475,0,U,33434,999,91720,.9095114E-5,-.2E-6,0
STARS (KUKAI),2009-002G,2026-06-07T02:48:55.236672,14.95678271,.00080106,98.1541,105.0154,193.5060,166.5946,0,U,33498,999,93697,.39038002E-3,.4283E-4,0
KKS-1 (KISEKI),2009-002H,2026-06-06T19:10:55.536096,14.83097275,.00071923,98.1193,80.0770,334.4433,25.6423,0,U,33499,999,93465,.18860035E-3,.1481E-4,0
NOAA 19,2009-005A,2026-06-06T23:57:41.024736,14.13472810,.00146741,98.9520,228.8657,61.8209,298.4443,0,U,33591,999,89304,.47330411E-4,.44E-6,0
UK-DMC 2,2009-041C,2026-06-07T07:52:51.862656,14.76014082,.00013347,97.8830,293.5365,72.6567,287.4788,0,U,35683,999,90511,.10111504E-3,.647E-5,0
METEOR-M 1,2009-049A,2026-06-07T03:53:42.261216,14.23154630,.00021711,98.7381,120.7083,9.1513,350.9705,0,U,35865,999,86782,.59800929E-4,.91E-6,0
OCEANSAT-2,2009-051A,2026-06-07T06:18:45.378144,13.99663733,.00145974,98.2323,146.1045,266.4813,93.4684,0,U,35931,999,87794,.12371853E-3,.143E-5,0
SWISSCUBE,2009-051B,2026-06-05T11:15:38.778912,14.62458715,.00054307,98.4043,64.1532,246.3597,113.7034,0,U,35932,999,88744,.23506342E-3,.1141E-4,0
BEESAT-1,2009-051C,2026-06-06T23:29:05.404992,14.61704086,.00038936,98.3972,65.3456,257.6051,102.4714,0,U,35933,999,88769,.1913E-3,.904E-5,0
ITUPSAT1,2009-051E,2026-06-06T16:28:28.183584,14.60425026,.00060968,98.4055,64.2519,273.4297,86.6205,0,U,35935,999,88720,.18172217E-3,.831E-5,0
DMSP 5D-3 F18 (USA 210),2009-057A,2026-06-07T05:46:46.905888,14.14891360,.00098837,98.9033,139.0318,281.2296,78.7766,0,U,35951,999,85818,.1682647E-3,.28E-5,0
PROBA-2,2009-059B,2026-06-06T18:52:40.261440,14.54857997,.00123231,98.2451,341.2838,317.2726,42.7512,0,U,36037,999,88001,.58854199E-4,.207E-5,0
YAOGAN-7,2009-069A,2026-06-06T15:54:46.042560,14.77999154,.00259795,98.0084,43.5945,74.1214,286.2857,0,U,36110,999,88807,.81100931E-4,.535E-5,0
XIWANG-1 (HOPE-1),2009-072B,2026-06-07T05:05:16.545120,13.16440937,.00067712,100.4029,112.2039,256.8174,103.2183,0,U,36122,999,79169,.10283063E-2,.348E-5,0
RADUGA-1M 2,2010-002A,2026-06-07T04:51:05.180256,0.98969753,.00058839,3.5942,78.9821,268.0156,336.9944,0,U,36358,999,4992,0,-.175E-5,0
COSMOS 2463,2010-017A,2026-06-07T01:46:18.810048,13.71665146,.00368192,82.9608,257.1357,156.2054,18.8981,0,U,36519,999,80654,.5644833E-4,.67E-6,0
CARTOSAT-2B,2010-035A,2026-06-07T06:09:50.616576,14.78650270,.00103754,97.9952,208.8695,217.9785,142.0695,0,U,36795,999,85838,.13910765E-3,.967E-5,0
AISSAT 1,2010-035C,2026-06-06T15:38:19.565376,14.97312297,.00102721,98.0919,56.5238,93.0055,267.2341,0,U,36797,999,86264,.2340142E-3,.2654E-4,0
TISAT 1,2010-035E,2026-06-07T02:53:47.316192,15.31327055,.00000688,98.0705,103.7797,57.6327,302.4919,0,U,36799,999,86616,.75309847E-3,.22744E-3,0
YAOGAN-10,2010-038A,2026-06-07T07:50:13.398144,14.85322460,.00017232,97.8979,181.8102,88.1800,42.0405,0,U,36834,999,85574,.32016805E-3,.2698E-4,0
SHIJIAN-6 04B (SJ-6 04B),2010-051B,2026-06-07T06:41:51.764640,14.99292194,.00093773,97.8685,163.5889,345.2519,14.8428,0,U,37180,999,85419,.89813043E-4,.1035E-4,0
FENGYUN 3B,2010-059A,2026-06-07T06:36:15.492384,14.14840094,.00214202,98.9619,204.2474,212.7301,276.8989,0,U,37214,999,80602,.15188722E-3,.248E-5,0
COSMO-SKYMED 4,2010-060A,2026-06-07T05:59:29.059296,14.82159734,.00014254,97.8888,341.9934,83.5590,276.5785,0,U,37216,999,84309,.15362918E-4,.7E-6,0
O/OREOS (USA 219),2010-062C,2026-06-05T21:04:28.196832,14.93695134,.00123709,71.9702,105.9546,87.8701,272.3886,0,U,37224,999,11495,.28689329E-3,.2979E-4,0
ELEKTRO-L 1 (GOMS 2),2011-001A,2026-06-07T06:04:19.619904,1.00156080,.00043263,9.6627,54.6055,29.9053,154.8676,0,U,37344,999,5638,0,-.53E-6,0
RESOURCESAT-2,2011-015A,2026-06-06T22:53:37.448160,14.21604292,.00101466,98.7645,225.4660,288.5617,71.4458,0,U,37387,999,78472,.59076823E-4,.85E-6,0
YOUTHSAT,2011-015B,2026-06-07T04:19:38.498016,14.25626150,.00148672,98.3677,132.6859,16.2744,354.4396,0,U,37388,999,78621,.10031046E-3,.197E-5,0
APRIZESAT 6,2011-044F,2026-06-05T12:23:27.282336,14.76898404,.00442385,98.2372,66.7773,122.3000,58.2477,0,U,37793,999,79542,.12179529E-3,.814E-5,0
JUGNU,2011-058B,2026-06-07T07:06:47.272608,14.13774252,.00185102,19.9622,8.5160,327.3339,207.6155,0,U,37839,999,75762,.94355519E-4,.448E-5,0
SRMSAT,2011-058D,2026-06-06T06:31:30.735264,14.11573396,.00119474,19.9704,125.5359,84.3565,18.6414,0,U,37841,999,75627,.65061068E-4,.385E-5,0
